IRIDIUM 52 [+]          
1 25169U 98010A   17346.39073392  .00000174  00000-0  55207-4 0  9993
2 25169  86.3969 275.8697 0002053  81.6369 278.5059 14.34216814 37328
